CCSDS_OMM_VERS = 2.0
CREATION_DATE  = 
ORIGINATOR     = 

OBJECT_NAME    = STARLINK-36409
OBJECT_ID      = 2026-005C
CENTER_NAME    = EARTH
REF_FRAME      = TEME
TIME_SYSTEM    = UTC
MEAN_ELEMENT_THEORY = SGP/SGP4

EPOCH          = 2026-01-27T12:00:01.999296
MEAN_MOTION    = 15.72813106
ECCENTRICITY   = .0001142
INCLINATION    = 42.9998
RA_OF_ASC_NODE = 115.6778
ARG_OF_PERICENTER = 285.5236
MEAN_ANOMALY   = 256.3860

EPHEMERIS_TYPE = 0
CLASSIFICATION_TYPE = U
NORAD_CAT_ID   = 67406
ELEMENT_SET_NO = 999
REV_AT_EPOCH   = 356
BSTAR          = -.16013E-1
MEAN_MOTION_DOT = -.1975119E-1
MEAN_MOTION_DDOT = 0

CCSDS_OMM_VERS = 2.0
CREATION_DATE  = 
ORIGINATOR     = 

OBJECT_NAME    = STARLINK-36510
OBJECT_ID      = 2026-005D
CENTER_NAME    = EARTH
REF_FRAME      = TEME
TIME_SYSTEM    = UTC
MEAN_ELEMENT_THEORY = SGP/SGP4

EPOCH          = 2026-01-27T12:00:01.999296
MEAN_MOTION    = 15.72808983
ECCENTRICITY   = .0001291
INCLINATION    = 42.9998
RA_OF_ASC_NODE = 115.6731
ARG_OF_PERICENTER = 277.7665
MEAN_ANOMALY   = 266.0649

EPHEMERIS_TYPE = 0
CLASSIFICATION_TYPE = U
NORAD_CAT_ID   = 67407
ELEMENT_SET_NO = 999
REV_AT_EPOCH   = 356
BSTAR          = -.15977E-1
MEAN_MOTION_DOT = -.1971E-1
MEAN_MOTION_DDOT = 0

CCSDS_OMM_VERS = 2.0
CREATION_DATE  = 
ORIGINATOR     = 

OBJECT_NAME    = STARLINK-36509
OBJECT_ID      = 2026-005E
CENTER_NAME    = EARTH
REF_FRAME      = TEME
TIME_SYSTEM    = UTC
MEAN_ELEMENT_THEORY = SGP/SGP4

EPOCH          = 2026-01-27T12:00:01.999296
MEAN_MOTION    = 15.72811271
ECCENTRICITY   = .0000951
INCLINATION    = 42.9999
RA_OF_ASC_NODE = 115.6678
ARG_OF_PERICENTER = 274.5971
MEAN_ANOMALY   = 271.1531

EPHEMERIS_TYPE = 0
CLASSIFICATION_TYPE = U
NORAD_CAT_ID   = 67408
ELEMENT_SET_NO = 999
REV_AT_EPOCH   = 356
BSTAR          = -.16002E-1
MEAN_MOTION_DOT = -.197365E-1
MEAN_MOTION_DDOT = 0

CCSDS_OMM_VERS = 2.0
CREATION_DATE  = 
ORIGINATOR     = 

OBJECT_NAME    = STARLINK-36507
OBJECT_ID      = 2026-005F
CENTER_NAME    = EARTH
REF_FRAME      = TEME
TIME_SYSTEM    = UTC
MEAN_ELEMENT_THEORY = SGP/SGP4

EPOCH          = 2026-01-27T12:00:01.999296
MEAN_MOTION    = 15.72815791
ECCENTRICITY   = .0000958
INCLINATION    = 42.9999
RA_OF_ASC_NODE = 115.6630
ARG_OF_PERICENTER = 286.4377
MEAN_ANOMALY   = 261.2229

EPHEMERIS_TYPE = 0
CLASSIFICATION_TYPE = U
NORAD_CAT_ID   = 67409
ELEMENT_SET_NO = 999
REV_AT_EPOCH   = 356
BSTAR          = -.16041E-1
MEAN_MOTION_DOT = -.1978228E-1
MEAN_MOTION_DDOT = 0

CCSDS_OMM_VERS = 2.0
CREATION_DATE  = 
ORIGINATOR     = 

OBJECT_NAME    = STARLINK-36508
OBJECT_ID      = 2026-005G
CENTER_NAME    = EARTH
REF_FRAME      = TEME
TIME_SYSTEM    = UTC
MEAN_ELEMENT_THEORY = SGP/SGP4

EPOCH          = 2026-01-27T06:00:00.999648
MEAN_MOTION    = 15.73871603
ECCENTRICITY   = .00008204
INCLINATION    = 43.0000
RA_OF_ASC_NODE = 117.1683
ARG_OF_PERICENTER = 272.8932
MEAN_ANOMALY   = 298.9019

EPHEMERIS_TYPE = 0
CLASSIFICATION_TYPE = U
NORAD_CAT_ID   = 67410
ELEMENT_SET_NO = 999
REV_AT_EPOCH   = 352
BSTAR          = -.15170887E-1
MEAN_MOTION_DOT = -.1960974E-1
MEAN_MOTION_DDOT = 0

CCSDS_OMM_VERS = 2.0
CREATION_DATE  = 
ORIGINATOR     = 

OBJECT_NAME    = STARLINK-36503
OBJECT_ID      = 2026-005H
CENTER_NAME    = EARTH
REF_FRAME      = TEME
TIME_SYSTEM    = UTC
MEAN_ELEMENT_THEORY = SGP/SGP4

EPOCH          = 2026-01-27T12:00:01.999296
MEAN_MOTION    = 15.72808305
ECCENTRICITY   = .0000918
INCLINATION    = 42.9999
RA_OF_ASC_NODE = 115.6535
ARG_OF_PERICENTER = 283.4254
MEAN_ANOMALY   = 268.0746

EPHEMERIS_TYPE = 0
CLASSIFICATION_TYPE = U
NORAD_CAT_ID   = 67411
ELEMENT_SET_NO = 999
REV_AT_EPOCH   = 330
BSTAR          = -.15953E-1
MEAN_MOTION_DOT = -.1968123E-1
MEAN_MOTION_DDOT = 0

CCSDS_OMM_VERS = 2.0
CREATION_DATE  = 
ORIGINATOR     = 

OBJECT_NAME    = STARLINK-36446
OBJECT_ID      = 2026-005J
CENTER_NAME    = EARTH
REF_FRAME      = TEME
TIME_SYSTEM    = UTC
MEAN_ELEMENT_THEORY = SGP/SGP4

EPOCH          = 2026-01-27T06:00:00.999648
MEAN_MOTION    = 15.73866741
ECCENTRICITY   = .00013375
INCLINATION    = 43.0001
RA_OF_ASC_NODE = 117.1587
ARG_OF_PERICENTER = 257.7896
MEAN_ANOMALY   = 317.8443

EPHEMERIS_TYPE = 0
CLASSIFICATION_TYPE = U
NORAD_CAT_ID   = 67412
ELEMENT_SET_NO = 999
REV_AT_EPOCH   = 352
BSTAR          = -.15134295E-1
MEAN_MOTION_DOT = -.1917306E-1
MEAN_MOTION_DDOT = 0

CCSDS_OMM_VERS = 2.0
CREATION_DATE  = 
ORIGINATOR     = 

OBJECT_NAME    = STARLINK-36442
OBJECT_ID      = 2026-005K
CENTER_NAME    = EARTH
REF_FRAME      = TEME
TIME_SYSTEM    = UTC
MEAN_ELEMENT_THEORY = SGP/SGP4

EPOCH          = 2026-01-27T06:00:00.999648
MEAN_MOTION    = 15.73860948
ECCENTRICITY   = .0000951
INCLINATION    = 42.9997
RA_OF_ASC_NODE = 117.1533
ARG_OF_PERICENTER = 266.0412
MEAN_ANOMALY   = 311.5143

EPHEMERIS_TYPE = 0
CLASSIFICATION_TYPE = U
NORAD_CAT_ID   = 67413
ELEMENT_SET_NO = 999
REV_AT_EPOCH   = 352
BSTAR          = -.15086584E-1
MEAN_MOTION_DOT = -.191133E-1
MEAN_MOTION_DDOT = 0

CCSDS_OMM_VERS = 2.0
CREATION_DATE  = 
ORIGINATOR     = 

OBJECT_NAME    = STARLINK-36506
OBJECT_ID      = 2026-005L
CENTER_NAME    = EARTH
REF_FRAME      = TEME
TIME_SYSTEM    = UTC
MEAN_ELEMENT_THEORY = SGP/SGP4

EPOCH          = 2026-01-27T06:00:00.999648
MEAN_MOTION    = 15.73863147
ECCENTRICITY   = .00009204
INCLINATION    = 42.9999
RA_OF_ASC_NODE = 117.1486
ARG_OF_PERICENTER = 281.2107
MEAN_ANOMALY   = 298.2602

EPHEMERIS_TYPE = 0
CLASSIFICATION_TYPE = U
NORAD_CAT_ID   = 67414
ELEMENT_SET_NO = 999
REV_AT_EPOCH   = 352
BSTAR          = -.15125023E-1
MEAN_MOTION_DOT = -.1915664E-1
MEAN_MOTION_DDOT = 0

CCSDS_OMM_VERS = 2.0
CREATION_DATE  = 
ORIGINATOR     = 

OBJECT_NAME    = STARLINK-36468
OBJECT_ID      = 2026-005M
CENTER_NAME    = EARTH
REF_FRAME      = TEME
TIME_SYSTEM    = UTC
MEAN_ELEMENT_THEORY = SGP/SGP4

EPOCH          = 2026-01-27T06:00:00.999648
MEAN_MOTION    = 15.73862905
ECCENTRICITY   = .00012198
INCLINATION    = 42.9999
RA_OF_ASC_NODE = 117.1439
ARG_OF_PERICENTER = 262.2814
MEAN_ANOMALY   = 319.1104

EPHEMERIS_TYPE = 0
CLASSIFICATION_TYPE = U
NORAD_CAT_ID   = 67415
ELEMENT_SET_NO = 999
REV_AT_EPOCH   = 347
BSTAR          = -.15136135E-1
MEAN_MOTION_DOT = -.1917124E-1
MEAN_MOTION_DDOT = 0

CCSDS_OMM_VERS = 2.0
CREATION_DATE  = 
ORIGINATOR     = 

OBJECT_NAME    = STARLINK-36487
OBJECT_ID      = 2026-005N
CENTER_NAME    = EARTH
REF_FRAME      = TEME
TIME_SYSTEM    = UTC
MEAN_ELEMENT_THEORY = SGP/SGP4

EPOCH          = 2026-01-27T06:00:00.999648
MEAN_MOTION    = 15.73872417
ECCENTRICITY   = .00012286
INCLINATION    = 42.9999
RA_OF_ASC_NODE = 117.1389
ARG_OF_PERICENTER = 268.9780
MEAN_ANOMALY   = 314.3168

EPHEMERIS_TYPE = 0
CLASSIFICATION_TYPE = U
NORAD_CAT_ID   = 67416
ELEMENT_SET_NO = 999
REV_AT_EPOCH   = 352
BSTAR          = -.15163992E-1
MEAN_MOTION_DOT = -.1920864E-1
MEAN_MOTION_DDOT = 0

CCSDS_OMM_VERS = 2.0
CREATION_DATE  = 
ORIGINATOR     = 

OBJECT_NAME    = STARLINK-36374
OBJECT_ID      = 2026-005P
CENTER_NAME    = EARTH
REF_FRAME      = TEME
TIME_SYSTEM    = UTC
MEAN_ELEMENT_THEORY = SGP/SGP4

EPOCH          = 2026-01-27T06:00:00.999648
MEAN_MOTION    = 15.73856068
ECCENTRICITY   = .00011906
INCLINATION    = 43.0000
RA_OF_ASC_NODE = 117.1342
ARG_OF_PERICENTER = 270.1482
MEAN_ANOMALY   = 315.0789

EPHEMERIS_TYPE = 0
CLASSIFICATION_TYPE = U
NORAD_CAT_ID   = 67417
ELEMENT_SET_NO = 999
REV_AT_EPOCH   = 352
BSTAR          = -.15058356E-1
MEAN_MOTION_DOT = -.1908098E-1
MEAN_MOTION_DDOT = 0

