STARLINK-36409          
1 67406U 26005C   26027.50002314 -.01975119  00000+0 -16013-1 0  9994
2 67406  42.9998 115.6778 0001142 285.5236 256.3860 15.72813106  3568
STARLINK-36510          
1 67407U 26005D   26027.50002314 -.01971000  00000+0 -15977-1 0  9998
2 67407  42.9998 115.6731 0001291 277.7665 266.0649 15.72808983  3562
STARLINK-36509          
1 67408U 26005E   26027.50002314 -.01973650  00000+0 -16002-1 0  9992
2 67408  42.9999 115.6678 0000951 274.5971 271.1531 15.72811271  3562
STARLINK-36507          
1 67409U 26005F   26027.50002314 -.01978228  00000+0 -16041-1 0  9992
2 67409  42.9999 115.6630 0000958 286.4377 261.2229 15.72815791  3565
STARLINK-36508          
1 67410U 26005G   26027.25001157 -.01960974  00000+0 -15171-1 0  9992
2 67410  43.0000 117.1683 0000820 272.8932 298.9019 15.73871603  3526
STARLINK-36503          
1 67411U 26005H   26027.50002314 -.01968123  00000+0 -15953-1 0  9999
2 67411  42.9999 115.6535 0000918 283.4254 268.0746 15.72808305  3303
STARLINK-36446          
1 67412U 26005J   26027.25001157 -.01917306  00000+0 -15134-1 0  9994
2 67412  43.0001 117.1587 0001337 257.7896 317.8443 15.73866741  3526
STARLINK-36442          
1 67413U 26005K   26027.25001157 -.01911330  00000+0 -15087-1 0  9993
2 67413  42.9997 117.1533 0000951 266.0412 311.5143 15.73860948  3529
STARLINK-36506          
1 67414U 26005L   26027.25001157 -.01915664  00000+0 -15125-1 0  9991
2 67414  42.9999 117.1486 0000920 281.2107 298.2602 15.73863147  3520
STARLINK-36468          
1 67415U 26005M   26027.25001157 -.01917124  00000+0 -15136-1 0  9997
2 67415  42.9999 117.1439 0001219 262.2814 319.1104 15.73862905  3470
STARLINK-36487          
1 67416U 26005N   26027.25001157 -.01920864  00000+0 -15164-1 0  9994
2 67416  42.9999 117.1389 0001228 268.9780 314.3168 15.73872417  3522
STARLINK-36374          
1 67417U 26005P   26027.25001157 -.01908098  00000+0 -15058-1 0  9992
2 67417  43.0000 117.1342 0001190 270.1482 315.0789 15.73856068  3520
